[Satellite]
VERSION=1.1
NAME=QUICKBIRD 2
NICKNAME=QUICKBIRD 2
TLE1=1 26953U 01047A   11060.13420022  .00003291  00000-0  84769-4 0  1152
TLE2=2 26953  97.0940 129.7581 0001359  80.3025   4.2595 15.39900278526322
